OBJECT_NAME,OBJECT_ID,EPOCH,MEAN_MOTION,ECCENTRICITY,INCLINATION,RA_OF_ASC_NODE,ARG_OF_PERICENTER,MEAN_ANOMALY,EPHEMERIS_TYPE,CLASSIFICATION_TYPE,NORAD_CAT_ID,ELEMENT_SET_NO,REV_AT_EPOCH,BSTAR,MEAN_MOTION_DOT,MEAN_MOTION_DDOT
LEMUR-2-CELIJO-SB-PK,2025-276DW,2026-06-05T02:16:46.316064,14.99821980,.00087037,97.5286,227.2685,162.1675,197.9856,0,U,66781,999,2081,.53833638E-3,.6614E-4,0
LEMUR-2-FINNIAN,2025-276DX,2026-06-05T00:12:11.954016,15.00218347,.00083005,97.5250,227.3906,125.9633,234.2363,0,U,66782,999,1817,.6650809E-3,.8271E-4,0
LEMUR-2-STARLIGHT,2025-276DY,2026-06-05T00:29:58.759008,14.98907454,.00151992,97.5270,227.0739,163.3797,196.7928,0,U,66783,999,2837,.63983721E-3,.7699E-4,0
LEMUR-2-TARTIFLETTE,2025-276DZ,2026-06-04T18:03:34.583904,14.98918843,.00137992,97.5271,226.8199,170.4246,189.7243,0,U,66784,999,2833,.74334264E-3,.8954E-4,0
LEMUR-2-VUKASIN,2025-276EA,2026-06-04T16:33:51.348096,15.00218565,.00061717,97.5301,227.0271,153.9610,206.1925,0,U,66785,999,2827,.59914243E-3,.7442E-4,0
LEMUR-2-HOTSPUR-TOM,2025-276EB,2026-06-05T00:15:59.522112,14.98800296,.0015058,97.5240,227.0560,165.6469,194.5185,0,U,66786,999,2830,.70399756E-3,.8454E-4,0
LEMUR-2-MYRA,2025-276EC,2026-06-04T17:17:29.927328,15.00071955,.0014975,97.5221,227.0119,183.0269,177.0867,0,U,66787,999,2834,.59737E-3,.7405E-4,0
LEMUR-2 FIKRETDENGIZ,2026-004A,2026-06-03T13:16:36.378048,14.88221873,.00088388,97.8015,153.3224,173.3369,186.7966,0,U,67363,999,2125,.51674204E-3,.4718E-4,0
TWILIGHT-1 OBJECT B,2026-004B,2026-06-05T06:05:21.593760,14.87659113,.00090951,97.8060,155.0163,159.3695,200.7890,0,U,67364,999,2151,.20503487E-3,.1813E-4,0
LEMUR-2-MARIO-SOUSA,2026-004C,2026-06-04T05:03:30.778560,14.88405946,.00084766,97.7991,153.9664,171.6156,188.5204,0,U,67365,999,2136,.6120998E-3,.5625E-4,0
LEMUR-2-SONNENBLUME,2026-004E,2026-06-05T06:48:01.709568,14.88253424,.00081181,97.7986,155.0112,170.4071,189.7302,0,U,67367,999,2152,.36321084E-3,.3302E-4,0
LEMUR-2-WOBLER,2026-004F,2026-06-05T06:40:50.951136,14.88430554,.00086077,97.8041,155.1164,159.5144,200.6420,0,U,67368,999,2152,.49365343E-3,.4528E-4,0
LEMUR-2-GRAM-E-SUE,2026-004H,2026-06-05T06:27:00.874368,14.88416143,.00071284,97.7973,155.0109,170.7222,189.4128,0,U,67370,999,2152,.32524769E-3,.2963E-4,0
LEMUR-2-KATIE,2026-004AA,2026-06-05T06:26:42.535968,14.89958900,.00045405,97.8036,155.4316,117.7452,242.4227,0,U,67387,999,2153,.51013867E-3,.4861E-4,0
LEMUR-2-HCS-BAZUS,2026-004AB,2026-06-05T06:25:24.667104,14.89951559,.00042036,97.8021,155.4134,113.1866,246.9795,0,U,67388,999,2153,.54487684E-3,.5195E-4,0
