LEMUR-2-CELIJO-SB-PK    
1 66781U 25276DW  26156.09498051  .00006614  00000+0  53834-3 0  9998
2 66781  97.5286 227.2685 0008703 162.1675 197.9856 14.99821980 20812
LEMUR-2-FINNIAN         
1 66782U 25276DX  26156.00847169  .00008271  00000+0  66508-3 0  9991
2 66782  97.5250 227.3906 0008300 125.9633 234.2363 15.00218347 18179
LEMUR-2-STARLIGHT       
1 66783U 25276DY  26156.02081897  .00007699  00000+0  63984-3 0  9990
2 66783  97.5270 227.0739 0015199 163.3797 196.7928 14.98907454 28376
LEMUR-2-TARTIFLETTE     
1 66784U 25276DZ  26155.75248361  .00008954  00000+0  74334-3 0  9997
2 66784  97.5271 226.8199 0013799 170.4246 189.7243 14.98918843 28339
LEMUR-2-VUKASIN         
1 66785U 25276EA  26155.69017764  .00007442  00000+0  59914-3 0  9990
2 66785  97.5301 227.0271 0006171 153.9610 206.1925 15.00218565 28277
LEMUR-2-HOTSPUR-TOM     
1 66786U 25276EB  26156.01110558  .00008454  00000+0  70400-3 0  9990
2 66786  97.5240 227.0560 0015058 165.6469 194.5185 14.98800296 28303
LEMUR-2-MYRA            
1 66787U 25276EC  26155.72048527  .00007405  00000+0  59737-3 0  9999
2 66787  97.5221 227.0119 0014975 183.0269 177.0867 15.00071955 28345
LEMUR-2 FIKRETDENGIZ    
1 67363U 26004A   26154.55319882  .00004718  00000+0  51674-3 0  9991
2 67363  97.8015 153.3224 0008838 173.3369 186.7966 14.88221873 21253
TWILIGHT-1 OBJECT B     
1 67364U 26004B   26156.25372215  .00001813  00000+0  20503-3 0  9990
2 67364  97.8060 155.0163 0009095 159.3695 200.7890 14.87659113 21510
LEMUR-2-MARIO-SOUSA     
1 67365U 26004C   26155.21077290  .00005625  00000+0  61210-3 0  9996
2 67365  97.7991 153.9664 0008476 171.6156 188.5204 14.88405946 21366
LEMUR-2-SONNENBLUME     
1 67367U 26004E   26156.28335312  .00003302  00000+0  36321-3 0  9993
2 67367  97.7986 155.0112 0008118 170.4071 189.7302 14.88253424 21521
LEMUR-2-WOBLER          
1 67368U 26004F   26156.27836749  .00004528  00000+0  49365-3 0  9996
2 67368  97.8041 155.1164 0008607 159.5144 200.6420 14.88430554 21520
LEMUR-2-GRAM-E-SUE      
1 67370U 26004H   26156.26876012  .00002963  00000+0  32525-3 0  9996
2 67370  97.7973 155.0109 0007128 170.7222 189.4128 14.88416143 21520
LEMUR-2-KATIE           
1 67387U 26004AA  26156.26854787  .00004861  00000+0  51014-3 0  9992
2 67387  97.8036 155.4316 0004540 117.7452 242.4227 14.89958900 21538
LEMUR-2-HCS-BAZUS       
1 67388U 26004AB  26156.26764661  .00005195  00000+0  54488-3 0  9993
2 67388  97.8021 155.4134 0004203 113.1866 246.9795 14.89951559 21538
